ARIANE 40+ R/B          
1 23561U 95021B   26190.14693453  .00000148  00000+0  60946-4 0  9998
2 23561  98.4402 259.9038 0007716 131.9982 258.0810 14.39845419636722
SL-16 R/B               
1 23705U 95058B   26190.53395590 -.00000158  00000+0 -56605-4 0  9992
2 23705  71.0217 284.4411 0014619 290.2162  69.7389 14.15508224585095
SL-16 R/B               
1 24298U 96051B   26190.26865970  .00000132  00000+0  97896-4 0  9995
2 24298  70.7651 277.9186 0017329 305.8479  54.1031 14.12454199538810
ORBVIEW 2 (SEASTAR)     
1 24883U 97037A   26190.74182676  .00000148  00000+0  67593-4 0  9996
2 24883  98.8708 358.3882 0003227  71.7834 288.3701 14.35565113525980
SL-16 R/B               
1 25400U 98043G   26190.81487310  .00000014  00000+0  24840-4 0  9991
2 25400  98.8377 145.1702 0010324  26.3833 333.7870 14.26072208456390
SL-16 R/B               
1 25407U 98045B   26190.20258191 -.00000190  00000+0 -71871-4 0  9999
2 25407  71.0122 286.0308 0008478 214.9339 145.1229 14.16207407444309
ISS (ZARYA)             
1 25544U 98067A   26190.70194686  .00005376  00000+0  10580-3 0  9996
2 25544  51.6304 188.6620 0006668 275.8666  84.1562 15.48959671575242
CZ-4B R/B               
1 25732U 99025C   26190.07200595  .00000016  00000+0  28426-4 0  9992
2 25732  98.6473 231.3586 0036985 357.5197  31.3708 14.18287007405373
OKEAN-O                 
1 25860U 99039A   26190.11049683  .00000360  00000+0  53810-4 0  9990
2 25860  97.9304 248.6555 0001013  76.9524 283.1801 14.80492874452357
SL-16 R/B               
1 25861U 99039B   26190.17944755  .00000312  00000+0  46185-4 0  9995
2 25861  97.9826 248.9786 0013881 218.8084 141.2133 14.81867008454855
DELTA 2 R/B             
1 25876U 99041E   26189.69296282  .00001200  00000+0  23116-3 0  9999
2 25876  51.7612 177.8781 0501235 345.5594  13.1446 14.12066017380123
HELIOS 1B               
1 25977U 99064A   26190.16731365  .00001013  00000+0  11658-3 0  9996
2 25977  98.1594  95.9417 0002188  61.3924 298.7512 14.88065492703323
TERRA                   
1 25994U 99068A   26190.27644859  .00000261  00000+0  62003-4 0  9997
2 25994  97.9444 238.9456 0003146 134.5499 298.5628 14.61120751412830
SL-16 R/B               
1 26070U 00006B   26190.03751632 -.00000238  00000+0 -96496-4 0  9998
2 26070  71.0003 202.6810 0016941 348.6607  11.4131 14.15839868365730
TITAN 4B R/B            
1 26474U 00047B   26190.77631126  .00001700  00000+0  10945-3 0  9994
2 26474  67.9873  56.9844 0045965 264.1170  95.4739 15.10316820411348
ENVISAT                 
1 27386U 02009A   26190.65936079  .00000036  00000+0  25423-4 0  9998
2 27386  98.3845 141.4780 0001354  84.1623  89.0213 14.39069937276714
IDEFIX & ARIANE 42P R/B 
1 27422U 02021B   26190.29324640  .00000128  00000+0  65340-4 0  9992
2 27422  98.5942 127.5372 0011522 183.7165 176.3934 14.31092144261411
AQUA                    
1 27424U 02022A   26190.84678780  .00000491  00000+0  10730-3 0  9998
2 27424  98.4291 160.5845 0000785 103.5476 343.2193 14.62192238286581
CZ-4B R/B               
1 27432U 02024C   26190.60493661 -.00000002  00000+0  21925-4 0  9994
2 27432  98.8689 243.2782 0050756  37.7284  90.1973 14.14567746246477
MIDORI II (ADEOS-II)    
1 27597U 02056A   26190.60848182  .00000147  00000+0  75585-4 0  9993
2 27597  98.7891 150.0604 0001706  47.5905 312.5420 14.29361303227712
H-2A R/B                
1 27601U 02056E   26189.92532035  .00000152  00000+0  67521-4 0  9996
2 27601  98.3324 145.8088 0070502 159.4596 268.9584 14.33831655231483
CZ-4B R/B               
1 28059U 03049C   26190.71693966  .00000165  00000+0  49457-4 0  9999
2 28059  98.6906 190.4613 0047323 218.2137 141.5701 14.55113787204345
CZ-2C R/B               
1 28222U 04012C   26189.80327200  .00099446  00000+0  44522-3 0  9992
2 28222  97.7050 268.0571 0011127 210.2414 149.8213 15.83823781223316
SL-16 R/B               
1 28353U 04021B   26190.64770066  .00000196  00000+0  12681-3 0  9998
2 28353  71.0023 336.5501 0006462 229.7295 130.3263 14.14615079140082
CZ-4B R/B               
1 28415U 04035C   26190.68466212  .00005094  00000+0  17086-3 0  9997
2 28415  97.3363 223.5074 0028955 253.2571 106.5493 15.30942073198561
CZ-2C R/B               
1 28480U 04046B   26190.20827633  .00000058  00000+0  36569-4 0  9990
2 28480  98.1926  97.6108 0139791 155.0214 205.7818 14.27031973125835
ARIANE 5 R/B            
1 28499U 04049H   26190.76297155  .00000324  00000+0  42624-4 0  9999
2 28499  98.2737   3.8907 0082899 316.1224  43.3424 14.85475065163917
CZ-2D R/B               
1 28738U 05024B   26189.62441742  .00050849  00000+0  38743-3 0  9998
2 28738  97.3477 210.1597 0001260 219.5546 140.5626 15.72109039158705
ALOS (DAICHI)           
1 28931U 06002A   26190.82412380  .00000659  00000+0  11792-3 0  9999
2 28931  98.1335 146.3227 0000780  84.1885 275.9410 14.70095524 91429
H-2A R/B                
1 28932U 06002B   26189.93617283  .00005483  00000+0  26202-3 0  9991
2 28932  98.2584 347.7399 0050424 187.2932 172.7573 15.18377997112824
